ONEWEB-0198             
1 48216U 21031G   24034.68076445 -.00000142  00000+0 -41734-3 0  9991
2 48216  87.8951 101.8027 0001832  85.5871 274.5468 13.14501603134916
ONEWEB-0189             
1 48217U 21031H   24034.69344438  .00000054  00000+0  11202-3 0  9990
2 48217  87.8950 101.7764 0001766  83.4827 276.6504 13.14501382134656
ONEWEB-0196             
1 48218U 21031J   24034.67124367 -.00000216  00000+0 -61665-3 0  9996
2 48218  87.8955 101.7818 0001935  97.7087 262.4262 13.14501157134650
ONEWEB-0183             
1 48219U 21031K   24034.72199257  .00000073  00000+0  16193-3 0  9998
2 48219  87.8955 101.7894 0001754 102.6816 257.4510 13.14501344134759
ONEWEB-0185             
1 48220U 21031L   24034.74814934 -.00000128  00000+0 -37875-3 0  9991
2 48220  87.8950 101.7575 0001588  95.7090 264.4220 13.14501644134684
ONEWEB-0187             
1 48221U 21031M   24034.71802481  .00000157  00000+0  38976-3 0  9996
2 48221  87.8955 101.7944 0001691 102.9900 257.1418 13.14500845134697
ONEWEB-0192             
1 48222U 21031N   24034.69820150  .00000095  00000+0  22257-3 0  9993
2 48222  87.8955 101.7957 0001895  95.8618 264.2728 13.14500862134607
ONEWEB-0219             
1 48223U 21031P   24034.67758932 -.00000190  00000+0 -54677-3 0  9999
2 48223  87.8952 101.7745 0001639  98.5362 261.5954 13.14502194134805
